[{"OBJECT_NAME":"ONEWEB-0445","OBJECT_ID":"2022-012T","EPOCH":"2026-03-09T22:18:02.509344","MEAN_MOTION":13.10376329,"ECCENTRICITY":0.0002086,"INCLINATION":87.8784,"RA_OF_ASC_NODE":56.0108,"ARG_OF_PERICENTER":83.4549,"MEAN_ANOMALY":276.6816,"EPHEMERIS_TYPE":0,"CLASSIFICATION_TYPE":"U","NORAD_CAT_ID":51639,"ELEMENT_SET_NO":999,"REV_AT_EPOCH":19634,"BSTAR":3.7696268e-5,"MEAN_MOTION_DOT":2.6e-7,"MEAN_MOTION_DDOT":0},{"OBJECT_NAME":"FENGYUN 1C DEB","OBJECT_ID":"1999-025DXJ","EPOCH":"2026-03-09T05:09:04.298112","MEAN_MOTION":13.60936903,"ECCENTRICITY":0.02884045,"INCLINATION":99.258,"RA_OF_ASC_NODE":350.69,"ARG_OF_PERICENTER":250.3074,"MEAN_ANOMALY":106.6744,"EPHEMERIS_TYPE":0,"CLASSIFICATION_TYPE":"U","NORAD_CAT_ID":36281,"ELEMENT_SET_NO":999,"REV_AT_EPOCH":85693,"BSTAR":0.0024367884,"MEAN_MOTION_DOT":2.39e-5,"MEAN_MOTION_DDOT":0}]
